     2.100          NAVIGATION                              RINEX VERSION / TYPE
fic2rin                                 08/20/2012 00:08:15 PGM / RUN BY / DATE
                                                            END OF HEADER
15 12  8 19 16  0  0.0 -.939671881497D-04 -.568434188608D-12  .000000000000D+00
     .910000000000D+02 -.695000000000D+02  .503556689443D-08  .562976432171D+00
    -.358559191227D-05  .453021808062D-02  .594183802605D-05  .515361222458D+04
     .576000000000D+05  .502914190292D-07 -.661893550135D+00  .204890966415D-07
     .944336830825D+00  .255406250000D+03  .379013006156D-01 -.850535428215D-08
    -.428589281035D-09  .100000000000D+01  .170200000000D+04  .000000000000D+00
     .240000000000D+01  .000000000000D+00 -.102445483208D-07  .910000000000D+02
     .504060000000D+05  .400000000000D+01
16 12  8 19 16  0  0.0 -.244093127549D-03 -.909494701773D-12  .000000000000D+00
     .106000000000D+03  .592500000000D+02  .464912222603D-08  .218765541409D+01
     .320374965668D-05  .653892732225D-02  .430271029472D-05  .515372231102D+04
     .576000000000D+05 -.614672899246D-07  .150002316770D+01  .152736902237D-06
     .981267485295D+00  .308843750000D+03  .284284861948D-01 -.827713048999D-08
     .368586781690D-09  .100000000000D+01  .170200000000D+04  .000000000000D+00
     .240000000000D+01  .000000000000D+00 -.977888703346D-08  .106000000000D+03
     .504060000000D+05  .400000000000D+01
17 12  8 19 16  0  0.0  .103728845716D-03 -.318323145621D-11  .000000000000D+00
     .105000000000D+03 -.935625000000D+02  .476305554324D-08  .126944703747D+01
    -.482238829136D-05  .746706163045D-02  .624731183052D-05  .515372592163D+04
     .576000000000D+05 -.856816768646D-07  .254010306556D+01  .558793544769D-07
     .963672960778D+00  .264718750000D+03 -.229535399041D+01 -.838999233400D-08
    -.596096258373D-09  .100000000000D+01  .170200000000D+04  .000000000000D+00
     .340000000000D+01  .000000000000D+00 -.107102096081D-07  .105000000000D+03
     .504060000000D+05  .400000000000D+01
18 12  8 19 16  0  0.0  .210852827877D-03  .181898940355D-11  .000000000000D+00
     .187000000000D+03  .677812500000D+02  .538308136980D-08  .273027367054D+01
     .339187681675D-05  .136334166164D-01  .393390655518D-05  .515371724892D+04
     .576000000000D+05  .115483999252D-06 -.167879902623D+01 -.137835741043D-06
     .928682435580D+00  .284843750000D+03 -.215015855181D+01 -.848821071090D-08
     .400730977768D-09  .100000000000D+01  .170200000000D+04  .000000000000D+00
     .240000000000D+01  .000000000000D+00 -.107102096081D-07  .187000000000D+03
     .504060000000D+05  .400000000000D+01
19 12  8 19 16  0  0.0 -.295829493552D-03 -.352429196937D-11  .000000000000D+00
     .700000000000D+02 -.965625000000D+02  .483841582515D-08  .442336493388D+00
    -.499002635479D-05  .857031729538D-02  .663660466671D-05  .515360957909D+04
     .576000000000D+05  .132247805595D-06  .259288776848D+01  .106170773506D-06
     .961056635661D+00  .246500000000D+03  .229611373790D+00 -.841106464032D-08
    -.652170022642D-09  .100000000000D+01  .170200000000D+04  .000000000000D+00
     .240000000000D+01  .000000000000D+00 -.149011611938D-07  .700000000000D+02
     .504060000000D+05  .400000000000D+01
20 12  8 19 16  0  0.0  .665499828756D-04  .682121026330D-12  .000000000000D+00
     .100000000000D+03  .748437500000D+02  .539915346784D-08 -.312899068227D+01
     .394880771637D-05  .495112198405D-02  .518560409546D-05  .515364695549D+04
     .576000000000D+05  .931322574615D-08 -.173249259626D+01 -.279396772385D-07
     .929237949462D+00  .261406250000D+03  .127775533692D+01 -.857500004031D-08
     .453233164695D-09  .100000000000D+01  .170200000000D+04  .000000000000D+00
     .240000000000D+01  .000000000000D+00 -.791624188423D-08  .100000000000D+03
     .504060000000D+05  .400000000000D+01
21 12  8 19 16  0  0.0 -.244204886258D-03 -.250111042988D-11  .000000000000D+00
     .780000000000D+02  .160312500000D+02  .467090884782D-08 -.240567847981D+01
     .620260834694D-06  .193219222128D-01  .130329281092D-04  .515358775520D+04
     .576000000000D+05  .171363353729D-06 -.272900285701D+01 -.149011611938D-06
     .931792612582D+00  .108656250000D+03 -.222597043818D+01 -.779318176016D-08
     .220009164265D-09  .100000000000D+01  .170200000000D+04  .000000000000D+00
     .240000000000D+01  .000000000000D+00 -.111758708954D-07  .780000000000D+02
     .504060000000D+05  .400000000000D+01
22 12  8 19 16  0  0.0  .146741978824D-03  .568434188608D-12  .000000000000D+00
     .230000000000D+02  .662187500000D+02  .564987819725D-08  .195167682102D+01
     .337138772011D-05  .631999189500D-02  .422075390816D-05  .515366991234D+04
     .576000000000D+05 -.186264514923D-08 -.167559530146D+01 -.171363353729D-06
     .926408601528D+00  .279218750000D+03 -.200559422484D+01 -.879965225512D-08
     .398230873629D-09  .100000000000D+01  .170200000000D+04  .000000000000D+00
     .240000000000D+01  .000000000000D+00 -.172294676304D-07  .230000000000D+02
     .504060000000D+05  .400000000000D+01
23 12  8 19 16  0  0.0  .173427164555D-03 -.397903932026D-11  .000000000000D+00
     .360000000000D+02 -.691875000000D+02  .479984278986D-08  .411690470618D-01
    -.352784991264D-05  .821641134098D-02  .624358654022D-05  .515359068298D+04
     .576000000000D+05  .150874257088D-06 -.624941458063D+00  .596046447754D-07
     .959163520188D+00  .257875000000D+03 -.295198781755D+01 -.846178103857D-08
    -.408945605655D-09  .100000000000D+01  .170200000000D+04  .000000000000D+00
     .240000000000D+01  .000000000000D+00 -.200234353542D-07  .360000000000D+02
     .504060000000D+05  .400000000000D+01
25 12  8 19 16  0  0.0  .401786528528D-04  .102318153949D-11  .000000000000D+00
     .950000000000D+02  .658125000000D+02  .478912805784D-08 -.308168833507D+01
     .335089862347D-05  .182148045860D-02  .398606061935D-05  .515366665268D+04
     .576000000000D+05  .372529029846D-08  .144674894020D+01 -.484287738800D-07
     .969330736470D+00  .306968750000D+03  .783923359109D+00 -.836034824206D-08
     .380372986919D-09  .100000000000D+01  .170200000000D+04  .000000000000D+00
     .240000000000D+01  .000000000000D+00  .512227416039D-08  .950000000000D+02
     .504060000000D+05  .400000000000D+01
26 12  8 19 16  0  0.0 -.309548340738D-03  .125055521494D-10  .000000000000D+00
     .150000000000D+02 -.625937500000D+02  .421303263258D-08 -.945817397548D-01
    -.334158539772D-05  .207776891766D-01  .781938433647D-05  .515366339684D+04
     .576000000000D+05 -.206753611565D-06 -.550422450413D+00  .217929482460D-06
     .982383399206D+00  .246593750000D+03  .120481854100D+01 -.833463288520D-08
    -.410017078857D-09  .100000000000D+01  .170200000000D+04  .000000000000D+00
     .240000000000D+01  .000000000000D+00 -.605359673500D-08  .150000000000D+02
     .504060000000D+05  .400000000000D+01
28 12  8 19 16  0  0.0  .176818575710D-03  .386535248253D-11  .000000000000D+00
     .530000000000D+02  .580000000000D+02  .452554565000D-08  .189814503949D+01
     .267289578915D-05  .179832270369D-01  .442005693913D-05  .515362641144D+04
     .576000000000D+05 -.931322574615D-08  .150664446220D+01 -.456348061562D-06
     .979647381057D+00  .303906250000D+03 -.182265448600D+01 -.808676541767D-08
     .390730561211D-09  .100000000000D+01  .170200000000D+04  .000000000000D+00
     .240000000000D+01  .000000000000D+00 -.107102096081D-07  .530000000000D+02
     .504060000000D+05  .400000000000D+01
29 12  8 19 16  0  0.0  .346006359905D-03  .420641299570D-11  .000000000000D+00
     .270000000000D+02 -.948437500000D+02  .460054877418D-08 -.221409275614D+01
    -.507570803165D-05  .195327086840D-02  .703893601894D-05  .515380392838D+04
     .576000000000D+05 -.502914190292D-07  .254871577046D+01  .689178705215D-07
     .964243898206D+00  .244062500000D+03 -.105085369410D+01 -.816176854185D-08
    -.586810157284D-09  .100000000000D+01  .170200000000D+04  .000000000000D+00
     .240000000000D+01  .000000000000D+00 -.977888703346D-08  .270000000000D+02
     .504060000000D+05  .400000000000D+01
30 12  8 19 16  0  0.0 -.373387243599D-03 -.243289832724D-10  .000000000000D+00
     .770000000000D+02  .746250000000D+02  .509271213190D-08  .114078942401D+01
     .372901558876D-05  .112181894947D-01  .531040132046D-05  .515369116211D+04
     .576000000000D+05 -.149011611938D-06  .135503541519D+01 -.193715095520D-06
     .960551076042D+00  .279406250000D+03  .159748625774D+01 -.857964309086D-08
     .491449042254D-09  .100000000000D+01  .170200000000D+04  .000000000000D+00
     .240000000000D+02  .000000000000D+00 -.419095158577D-08  .770000000000D+02
     .504060000000D+05  .400000000000D+01
31 12  8 19 16  0  0.0  .268633943051D-03  .261479726760D-11  .000000000000D+00
     .350000000000D+02  .445625000000D+02  .382944522605D-08 -.154559973239D+01
     .221468508244D-05  .776797451545D-02  .137258321047D-04  .515371581650D+04
     .576000000000D+05 -.176951289177D-06  .428194789083D+00 -.242143869400D-07
     .981189729736D+00  .130750000000D+03 -.858757460295D+00 -.771103548129D-08
     .221437795202D-09  .100000000000D+01  .170200000000D+04  .000000000000D+00
     .240000000000D+01  .000000000000D+00 -.135041773319D-07  .350000000000D+02
     .504060000000D+05  .400000000000D+01
32 12  8 19 16  0  0.0 -.478407833725D-03 -.432009983342D-11  .000000000000D+00
     .650000000000D+02  .515937500000D+02  .508164024214D-08 -.965474339584D+00
     .267103314400D-05  .118370139971D-01  .444799661636D-05  .515359419632D+04
     .576000000000D+05 -.199303030968D-06 -.159836747863D+01 -.184401869774D-06
     .950598496174D+00  .290687500000D+03 -.538174281439D+00 -.858392898367D-08
     .481091467962D-09  .100000000000D+01  .170200000000D+04  .000000000000D+00
     .240000000000D+01  .000000000000D+00 -.325962901115D-08  .650000000000D+02
     .504060000000D+05  .400000000000D+01
